{
"type": "FeatureCollection",
"name": "gj_state",
"crs": { "type": "name", "properties": { "name": "urn:ogc:def:crs:OGC:1.3:CRS84" } },
"features": [
{ "type": "Feature", "properties": { "pc11_state_id": "24", "state_name": "Gujarat" }, "geometry": { "type": "MultiPolygon", "coordinates": [ [ [ [ 69.599252881000325, 22.343530501000373 ], [ 69.601056841000343, 22.336025490000338 ], [ 69.582675241000402, 22.321302660000413 ], [ 69.605434080000407, 22.339097730000333 ], [ 69.607960168000375, 22.330735189000393 ], [ 69.595453180000447, 22.321681087000343 ], [ 69.586667281000473, 22.30929099000042 ], [ 69.581674801000361, 22.318941240000413 ], [ 69.581707921000259, 22.307274991000327 ], [ 69.576963120000357, 22.328315640000312 ], [ 69.582958921000397, 22.327763850000338 ], [ 69.586833600000261, 22.341201570000351 ], [ 69.599252881000325, 22.343530501000373 ] ] ], [ [ [ 69.656469840000398, 22.338912510000284 ], [ 69.655152601000395, 22.341049290000342 ], [ 69.657598080000469, 22.340993040000342 ], [ 69.656469840000398, 22.338912510000284 ] ] ], [ [ [ 69.617685241000402, 22.3428635100002 ], [ 69.611400000000401, 22.346475930000281 ], [ 69.611601960000428, 22.349373120000223 ], [ 69.617685241000402, 22.3428635100002 ] ] ], [ [ [ 69.60282084000039, 22.347036000000287 ], [ 69.603044040000384, 22.351389570000265 ], [ 69.604093081000428, 22.351375260000282 ], [ 69.60282084000039, 22.347036000000287 ] ] ], [ [ [ 69.60041208000041, 22.349692081000228 ], [ 69.598603441000421, 22.353738390000274 ], [ 69.600982680000357, 22.355200800000262 ], [ 69.60041208000041, 22.349692081000228 ] ] ], [ [ [ 69.457842000000369, 22.354454520000331 ], [ 69.451067880000267, 22.349979360000248 ], [ 69.436012320000373, 22.353588270000444 ], [ 69.45111288100037, 22.358468160000427 ], [ 69.457842000000369, 22.354454520000331 ] ] ], [ [ [ 69.334856640000339, 22.387395600000445 ], [ 69.330489480000324, 22.37394474000024 ], [ 69.322775041000341, 22.382639280000205 ], [ 69.334856640000339, 22.387395600000445 ] ] ], [ [ [ 69.501560041000289, 22.390947270000311 ], [ 69.502201200000343, 22.379938110000353 ], [ 69.482592000000409, 22.380799680000393 ], [ 69.484579920000385, 22.389814980000267 ], [ 69.489979920000394, 22.383635130000357 ], [ 69.493791600000293, 22.392945180000424 ], [ 69.501560041000289, 22.390947270000311 ] ] ], [ [ [ 69.6464546400004, 22.438201050000202 ], [ 69.635531880000258, 22.439530800000227 ], [ 69.643402920000312, 22.435724970000308 ], [ 69.635693160000471, 22.433408910000367 ], [ 69.656084640000302, 22.42734129000047 ], [ 69.643419480000432, 22.416816060000372 ], [ 69.63569640000037, 22.420212120000201 ], [ 69.640880760000357, 22.414525470000399 ], [ 69.634721881000303, 22.407555510000293 ], [ 69.59837916100031, 22.423092390000306 ], [ 69.589266120000445, 22.437508320000404 ], [ 69.627868921000299, 22.459596301000374 ], [ 69.645132000000388, 22.447542240000359 ], [ 69.6464546400004, 22.438201050000202 ] ] ], [ [ [ 69.12921780000039, 22.477593330000275 ], [ 69.151000320000378, 22.469522490000372 ], [ 69.144557040000336, 22.452039720000357 ], [ 69.142254120000416, 22.464375300000313 ], [ 69.116195160000416, 22.467678930000432 ], [ 69.107017320000409, 22.460827500000221 ], [ 69.108359040000437, 22.438546470000347 ], [ 69.083798760000434, 22.424389110000448 ], [ 69.096935160000385, 22.442247720000353 ], [ 69.093241920000366, 22.462579440000411 ], [ 69.12921780000039, 22.477593330000275 ] ] ], [ [ [ 68.386822920000384, 23.432942251000327 ], [ 68.380604640000342, 23.429788290000261 ], [ 68.376355199000386, 23.438770380000392 ], [ 68.368252680000467, 23.433775830000286 ], [ 68.368289040000434, 23.478780600000391 ], [ 68.386692240000457, 23.469110641000327 ], [ 68.386822920000384, 23.432942251000327 ] ] ], [ [ [ 68.387128200000461, 23.447304630000417 ], [ 68.389806240000325, 23.463250290000246 ], [ 68.405833079000445, 23.469371100000444 ], [ 68.397873840000273, 23.447725380000236 ], [ 68.387128200000461, 23.447304630000417 ] ] ], [ [ [ 68.395423679000316, 23.473961191000342 ], [ 68.400889920000452, 23.480876340000293 ], [ 68.410216440000283, 23.480810640000357 ], [ 68.403092400000446, 23.472427860000209 ], [ 68.395423679000316, 23.473961191000342 ] ] ], [ [ [ 68.429205360000424, 23.640054841000392 ], [ 68.469046560000379, 23.623695990000385 ], [ 68.471384760000376, 23.600557890000459 ], [ 68.452986239000325, 23.599808550000262 ], [ 68.448474719000444, 23.584293180000316 ], [ 68.428498679000313, 23.564771911000435 ], [ 68.425316640000403, 23.551012890000379 ], [ 68.443631280000318, 23.512858110000366 ], [ 68.428683719000333, 23.496147450000308 ], [ 68.422936680000475, 23.501118780000411 ], [ 68.419506599000442, 23.489064540000413 ], [ 68.411517840000329, 23.4978095700003 ], [ 68.40369576000046, 23.482497511000361 ], [ 68.391468359000271, 23.501011951000351 ], [ 68.409382320000361, 23.566808521000212 ], [ 68.406268320000322, 23.616502740000442 ], [ 68.411622960000329, 23.620770990000267 ], [ 68.426600399000279, 23.612632470000335 ], [ 68.413319280000337, 23.625748711000313 ], [ 68.429205360000424, 23.640054841000392 ] ] ], [ [ [ 68.482399320000468, 23.566025521000427 ], [ 68.478019200000404, 23.573898360000328 ], [ 68.486308920000454, 23.574968370000249 ], [ 68.482399320000468, 23.566025521000427 ] ] ], [ [ [ 68.492872080000268, 23.61978900100047 ], [ 68.482110240000338, 23.599087381000402 ], [ 68.486258880000378, 23.579287560000409 ], [ 68.470158959000457, 23.576987160000272 ], [ 68.483104199000422, 23.55814431000033 ], [ 68.472787320000407, 23.555044530000202 ], [ 68.466799080000385, 23.548628341000381 ], [ 68.460121800000366, 23.547619710000276 ], [ 68.439554640000381, 23.532325110000272 ], [ 68.431383000000324, 23.565571020000391 ], [ 68.449897080000426, 23.56276932000037 ], [ 68.436451440000269, 23.568947911000294 ], [ 68.450444280000397, 23.583501271000216 ], [ 68.455042560000379, 23.598031320000473 ], [ 68.47125696000046, 23.596778880000272 ], [ 68.473414440000454, 23.616731521000304 ], [ 68.486507640000355, 23.612137291000465 ], [ 68.492872080000268, 23.61978900100047 ] ] ], [ [ [ 68.486536439000361, 23.615974350000272 ], [ 68.476962960000435, 23.621151420000331 ], [ 68.484678480000355, 23.627074141000378 ], [ 68.486536439000361, 23.615974350000272 ] ] ], [ [ [ 68.483995919000279, 23.629646160000448 ], [ 68.486415839000358, 23.632281900000237 ], [ 68.487490439000453, 23.630583150000348 ], [ 68.483995919000279, 23.629646160000448 ] ] ], [ [ [ 68.49261575900033, 23.634796410000433 ], [ 68.488395840000464, 23.640871770000388 ], [ 68.493429000000333, 23.63941242000044 ], [ 68.49261575900033, 23.634796410000433 ] ] ], [ [ [ 69.662727360000304, 22.34137329000032 ], [ 69.662714761000416, 22.337777610000217 ], [ 69.659469721000335, 22.338235080000231 ], [ 69.662727360000304, 22.34137329000032 ] ] ], [ [ [ 69.65699796000041, 22.34445516000028 ], [ 69.658064281000406, 22.346563770000444 ], [ 69.658974720000344, 22.34510199000033 ], [ 69.65699796000041, 22.34445516000028 ] ] ], [ [ [ 69.75558792000038, 22.439491020000332 ], [ 69.742764360000365, 22.448152080000398 ], [ 69.755891040000392, 22.45968522000021 ], [ 69.760285560000398, 22.449266640000417 ], [ 69.75558792000038, 22.439491020000332 ] ] ], [ [ [ 69.947433000000331, 22.515526800000259 ], [ 69.943857839000373, 22.518563670000333 ], [ 69.944945400000393, 22.519672199000468 ], [ 69.947433000000331, 22.515526800000259 ] ] ], [ [ [ 69.932975759000442, 22.519256400000302 ], [ 69.935652719000416, 22.530347280000285 ], [ 69.937329419000434, 22.530909825000379 ], [ 69.942419639000434, 22.522603049000338 ], [ 69.932975759000442, 22.519256400000302 ] ] ], [ [ [ 69.933184200000369, 22.53865373900021 ], [ 69.922411920000457, 22.540412700000331 ], [ 69.923196360000361, 22.534544970000297 ], [ 69.933227400000419, 22.535533799000348 ], [ 69.9283616390004, 22.529707829000415 ], [ 69.934967639000433, 22.532613659000276 ], [ 69.933714839000288, 22.524240690000227 ], [ 69.928727039000421, 22.520944260000476 ], [ 69.926393879000329, 22.528196100000457 ], [ 69.925529879000408, 22.523475689000406 ], [ 69.929913599000372, 22.518014939000295 ], [ 69.915544559000409, 22.511229209000362 ], [ 69.860635919000458, 22.527337500000272 ], [ 69.899544360000391, 22.52629998000026 ], [ 69.917962680000358, 22.550679900000375 ], [ 69.933385439000403, 22.545363509500305 ], [ 69.933184200000369, 22.53865373900021 ] ] ], [ [ [ 69.960186000000363, 22.539077100000327 ], [ 69.959850119000407, 22.54283874000032 ], [ 69.963516359000323, 22.541769810000346 ], [ 69.960186000000363, 22.539077100000327 ] ] ], [ [ [ 69.954495120000445, 22.55248260000036 ], [ 69.952950359000454, 22.537141380000378 ], [ 69.939511920000427, 22.538143530000355 ], [ 69.943329359000359, 22.551998489000312 ], [ 69.954495120000445, 22.55248260000036 ] ] ], [ [ [ 70.017985080000415, 22.549238910000383 ], [ 70.012281239000345, 22.551480810000385 ], [ 70.022984040000324, 22.553173800000309 ], [ 70.017985080000415, 22.549238910000383 ] ] ], [ [ [ 70.012292760000321, 22.553866800000264 ], [ 70.001869319000377, 22.550089860000412 ], [ 69.997256279000453, 22.550394510000388 ], [ 70.012292760000321, 22.553866800000264 ] ] ], [ [ [ 70.01411723900037, 22.554073890000211 ], [ 70.021150920000309, 22.558720139000286 ], [ 70.02498383900047, 22.557122100000356 ], [ 70.01411723900037, 22.554073890000211 ] ] ], [ [ [ 70.025709600000368, 22.588260390000471 ], [ 70.028370360000451, 22.569891480000308 ], [ 70.00890371900033, 22.555851660000371 ], [ 70.004339280000409, 22.556382750000296 ], [ 70.008525720000364, 22.569042419000311 ], [ 70.004898000000424, 22.572958139000264 ], [ 70.002368279000279, 22.556058480000445 ], [ 69.987999239000317, 22.548356550000335 ], [ 69.979883760000405, 22.548366630000316 ], [ 69.977629079000451, 22.55688900000041 ], [ 69.976815480000369, 22.548823019000338 ], [ 69.963319080000474, 22.546202040000423 ], [ 69.971168159000342, 22.556415150000305 ], [ 69.958590120000338, 22.551088769000387 ], [ 69.969032999000433, 22.578749010000422 ], [ 69.974093879000293, 22.573838970000224 ], [ 69.978544919000342, 22.582295369000292 ], [ 69.993549359000326, 22.584537090000424 ], [ 69.997368960000472, 22.579435620000197 ], [ 70.008929640000417, 22.592394900000443 ], [ 70.025709600000368, 22.588260390000471 ] ] ], [ [ [ 69.963066359000436, 22.605502950000357 ], [ 69.961447800000315, 22.598160929000471 ], [ 69.954025680000314, 22.60125324000046 ], [ 69.955243200000325, 22.606452810000292 ], [ 69.963066359000436, 22.605502950000357 ] ] ], [ [ [ 70.413526454505416, 22.992373985622066 ], [ 70.429726440000366, 23.04126486000024 ], [ 70.451278020000416, 23.0515756420005 ], [ 70.441274879000446, 23.016965850000361 ], [ 70.413526454505416, 22.992373985622066 ] ] ], [ [ [ 70.446703680000326, 23.016238200000373 ], [ 70.447173840000289, 23.027082750000261 ], [ 70.458796800000471, 23.04307431000035 ], [ 70.457869080000421, 23.0169724200004 ], [ 70.446703680000326, 23.016238200000373 ] ] ], [ [ [ 70.475738039500413, 23.049580994500388 ], [ 70.473264840000468, 23.039259300000367 ], [ 70.471467360000418, 23.039268390000245 ], [ 70.475738039500413, 23.049580994500388 ] ] ], [ [ [ 70.401866039000424, 23.045271930000467 ], [ 70.398182519000329, 23.051141370000266 ], [ 70.404493320000313, 23.057528940000338 ], [ 70.401866039000424, 23.045271930000467 ] ] ], [ [ [ 70.455602520000468, 23.055143760000306 ], [ 70.466484959000354, 23.062812750000376 ], [ 70.471991880000473, 23.06414196000037 ], [ 70.464809520000415, 23.055334740000319 ], [ 70.455602520000468, 23.055143760000306 ] ] ], [ [ [ 70.459691040000394, 23.059940310000343 ], [ 70.452760680000381, 23.056933499000195 ], [ 70.447280579500386, 23.056142670000384 ], [ 70.453897560000257, 23.063412150000374 ], [ 70.459691040000394, 23.059940310000343 ] ] ], [ [ [ 73.00949054300122, 20.232781910001222 ], [ 73.011822415001234, 20.224311029001001 ], [ 73.000602463001371, 20.212838854001177 ], [ 72.983494138001504, 20.213957201001222 ], [ 72.977688254001066, 20.222094957000934 ], [ 72.989793961001283, 20.235639565001293 ], [ 73.00949054300122, 20.232781910001222 ] ] ], [ [ [ 72.884335320000446, 20.644852860000356 ], [ 72.876634200000467, 20.648077290000344 ], [ 72.876669120000315, 20.650216590000412 ], [ 72.884335320000446, 20.644852860000356 ] ] ], [ [ [ 71.512888320000457, 20.904394860000195 ], [ 71.504137080000419, 20.903924430000359 ], [ 71.509884840000268, 20.911500090000288 ], [ 71.512888320000457, 20.904394860000195 ] ] ], [ [ [ 72.671091120000369, 21.128339341000355 ], [ 72.698893920000444, 21.138353281000434 ], [ 72.686437200000398, 21.098755261000235 ], [ 72.671091120000369, 21.128339341000355 ] ] ], [ [ [ 72.667185479000466, 21.12175692000045 ], [ 72.666371520000325, 21.131592481000268 ], [ 72.672255360000463, 21.135028410000416 ], [ 72.667185479000466, 21.12175692000045 ] ] ], [ [ [ 72.666772920000312, 21.136430071000461 ], [ 72.671986079000476, 21.151961010000207 ], [ 72.684914399000434, 21.150347850000344 ], [ 72.666772920000312, 21.136430071000461 ] ] ], [ [ [ 72.76947660000036, 21.173950261000357 ], [ 72.765612360000375, 21.16163637100027 ], [ 72.750670920000459, 21.156393690000357 ], [ 72.75266423900041, 21.172747500000412 ], [ 72.76947660000036, 21.173950261000357 ] ] ], [ [ [ 72.138251880000325, 21.219849361000399 ], [ 72.137827079000431, 21.228001650000351 ], [ 72.154194119000351, 21.255046650000395 ], [ 72.15005988000047, 21.228890490000197 ], [ 72.138251880000325, 21.219849361000399 ] ] ], [ [ [ 72.188170200000343, 21.292507890000365 ], [ 72.188826120000442, 21.319878510000365 ], [ 72.196961760000363, 21.324528630000202 ], [ 72.203297400000338, 21.311236980000331 ], [ 72.188170200000343, 21.292507890000365 ] ] ], [ [ [ 72.758205720000376, 21.665203110000334 ], [ 72.771112800000367, 21.652317630000312 ], [ 72.751125960000422, 21.636625050000418 ], [ 72.789715080000292, 21.656150910000406 ], [ 72.814520160000257, 21.646812510000302 ], [ 72.811753920000399, 21.616052490000357 ], [ 72.768921120000357, 21.612611430000413 ], [ 72.752902560000337, 21.626816310000322 ], [ 72.748534320000374, 21.621205260000352 ], [ 72.760886280000477, 21.610808010000369 ], [ 72.742791960000261, 21.606665490000466 ], [ 72.741971520000448, 21.62179800000041 ], [ 72.736542000000441, 21.605812110000386 ], [ 72.698007600000267, 21.59333334000047 ], [ 72.689886000000456, 21.564017820000345 ], [ 72.638151480000431, 21.537557460000357 ], [ 72.608066280000344, 21.559880790000193 ], [ 72.606626280000398, 21.594727080000325 ], [ 72.618521760000363, 21.642497190000313 ], [ 72.648442440000338, 21.650349780000397 ], [ 72.666834120000431, 21.634938000000318 ], [ 72.673912440000436, 21.640763790000392 ], [ 72.66474720000042, 21.647462130000235 ], [ 72.678641400000345, 21.652736580000351 ], [ 72.724070880000454, 21.650192370000354 ], [ 72.758205720000376, 21.665203110000334 ] ] ], [ [ [ 72.372989520000431, 21.592841850000298 ], [ 72.362111760000289, 21.595135140000195 ], [ 72.346527360000323, 21.620177550000278 ], [ 72.354522960000338, 21.633315840000364 ], [ 72.374823000000447, 21.618808380000473 ], [ 72.372989520000431, 21.592841850000298 ] ] ], [ [ [ 72.563494320000359, 21.63181356000041 ], [ 72.603024480000272, 21.631768110000223 ], [ 72.598017600000446, 21.599576100000434 ], [ 72.56429280100042, 21.605259960000353 ], [ 72.563494320000359, 21.63181356000041 ] ] ], [ [ [ 72.534222360000456, 21.614095440000426 ], [ 72.533034720000444, 21.625493400000437 ], [ 72.542599200000438, 21.62695725000026 ], [ 72.540245520000383, 21.61557189000041 ], [ 72.534222360000456, 21.614095440000426 ] ] ], [ [ [ 72.37717343900033, 21.630172320000327 ], [ 72.366478920000304, 21.633411690000287 ], [ 72.369047879000334, 21.642643440000313 ], [ 72.374633640000411, 21.640683240000328 ], [ 72.37717343900033, 21.630172320000327 ] ] ], [ [ [ 72.578491920000317, 21.648716370000272 ], [ 72.563253120000468, 21.64787838000035 ], [ 72.589913281000406, 21.665716020000275 ], [ 72.587544840000419, 21.658423770000354 ], [ 72.578491920000317, 21.648716370000272 ] ] ], [ [ [ 72.35985240000042, 21.812024970000436 ], [ 72.321477120000452, 21.83320998000022 ], [ 72.309186720000355, 21.857640930000287 ], [ 72.289824479000288, 21.977373600000476 ], [ 72.338566320000439, 22.028742809000391 ], [ 72.38461103900039, 22.0347574190003 ], [ 72.413553960000343, 22.021602030000281 ], [ 72.433099800000377, 22.001993190000405 ], [ 72.443801879000432, 21.97679867900041 ], [ 72.440056799000331, 21.942390510000337 ], [ 72.400653719000445, 21.894843510000385 ], [ 72.389221560000351, 21.82983615000046 ], [ 72.35985240000042, 21.812024970000436 ] ] ], [ [ [ 72.537248880000391, 22.152932100000442 ], [ 72.522766440000453, 22.106019240000364 ], [ 72.497910601000456, 22.096912050000356 ], [ 72.487006200000337, 22.087404540000307 ], [ 72.490452120000327, 22.082437890000392 ], [ 72.467992440000444, 22.075882290000322 ], [ 72.467593200000465, 22.085849520000409 ], [ 72.484703280000417, 22.103831520000369 ], [ 72.516037320000407, 22.120203420000337 ], [ 72.523526040000434, 22.140798930000358 ], [ 72.512411401000293, 22.121065530000237 ], [ 72.492464520000397, 22.110884730000407 ], [ 72.513982080000346, 22.13227827000037 ], [ 72.509552280000264, 22.146146910000368 ], [ 72.504582480000465, 22.128960600000312 ], [ 72.481499280000321, 22.120657740000297 ], [ 72.461565000000292, 22.09828140000036 ], [ 72.456316201000448, 22.130223930000398 ], [ 72.468863641000326, 22.150941030000354 ], [ 72.475590600000316, 22.155083550000313 ], [ 72.476115120000372, 22.13313678000037 ], [ 72.513973440000314, 22.16667321000034 ], [ 72.524654640000335, 22.1603126400002 ], [ 72.523173240000347, 22.17178746000036 ], [ 72.537248880000391, 22.152932100000442 ] ] ], [ [ [ 71.32743972000037, 24.684764399000244 ], [ 71.355022561000396, 24.679030859000306 ], [ 71.364564000000371, 24.63087384000039 ], [ 71.38204452000042, 24.624525060000394 ], [ 71.45706707900041, 24.666084900000214 ], [ 71.469717480000384, 24.663445470000283 ], [ 71.490591720000396, 24.676624620000268 ], [ 71.53629264000034, 24.680350530000339 ], [ 71.54901684000032, 24.671869740000261 ], [ 71.580274560000362, 24.679308150000395 ], [ 71.595675000000256, 24.66364815000037 ], [ 71.614835280000364, 24.672174570000266 ], [ 71.64567000000045, 24.65554023000044 ], [ 71.661378240000374, 24.63312051000031 ], [ 71.715510720000452, 24.657150960000308 ], [ 71.743866120000348, 24.655731840000328 ], [ 71.799695640000266, 24.672458250000318 ], [ 71.818420320000428, 24.650800740000363 ], [ 71.813888280000413, 24.619958820000363 ], [ 71.841425400000333, 24.617192310000462 ], [ 71.859580560000381, 24.603985890000388 ], [ 71.87509692000026, 24.626056320000259 ], [ 71.86831344000035, 24.663201390000381 ], [ 71.882552520000388, 24.678195750000384 ], [ 71.898783120000417, 24.668436060000374 ], [ 71.918181000000459, 24.673618350000368 ], [ 71.929767600000446, 24.668272170000364 ], [ 71.921912760000339, 24.654666870000312 ], [ 71.925439320000407, 24.645461220000357 ], [ 71.935953480000478, 24.631683930000293 ], [ 71.94984876000035, 24.629324490000442 ], [ 71.998508160000313, 24.653604600000335 ], [ 71.99430480000035, 24.672840570000346 ], [ 72.000996480000367, 24.688926810000453 ], [ 72.023269320000395, 24.687398610000287 ], [ 72.074005560000273, 24.70895505000027 ], [ 72.09833400000042, 24.699112650000359 ], [ 72.100443240000345, 24.654336570000339 ], [ 72.134011080000448, 24.634742940000422 ], [ 72.160581240000454, 24.639245910000341 ], [ 72.174587760000463, 24.617256300000406 ], [ 72.206366760000321, 24.611335470000256 ], [ 72.204445080000482, 24.618180330000314 ], [ 72.225148680000359, 24.622459020000292 ], [ 72.240113880000479, 24.636281040000313 ], [ 72.263826000000449, 24.620616270000426 ], [ 72.280699920000359, 24.633303840000394 ], [ 72.283486680000408, 24.623506440000313 ], [ 72.314697240000271, 24.612831000000369 ], [ 72.330345000000364, 24.613492860000406 ], [ 72.344838240000342, 24.628062330000319 ], [ 72.357300720000296, 24.623737470000378 ], [ 72.346359960000314, 24.594591330000412 ], [ 72.321986880000338, 24.589465650000307 ], [ 72.305757000000426, 24.603966990000401 ], [ 72.282421800000407, 24.602126940000403 ], [ 72.254588040000442, 24.579997020000292 ], [ 72.272537640000394, 24.555166560000316 ], [ 72.293091840000386, 24.560331120000399 ], [ 72.300366360000453, 24.542102790000342 ], [ 72.335039400000483, 24.547787910000352 ], [ 72.337444200000334, 24.562604610000392 ], [ 72.360158040000272, 24.557777280000323 ], [ 72.375285960000383, 24.539747040000464 ], [ 72.384037200000421, 24.508788930000321 ], [ 72.392612400000417, 24.504530400000363 ], [ 72.421198200000447, 24.517375830000219 ], [ 72.445907520000276, 24.511419270000317 ], [ 72.433659960000341, 24.477233850000289 ], [ 72.436581720000333, 24.458465430000274 ], [ 72.453395880000471, 24.440567130000318 ], [ 72.45752688000033, 24.41296854000035 ], [ 72.499519080000368, 24.415648290000377 ], [ 72.493670160000306, 24.457460490000301 ], [ 72.504489240000396, 24.458138460000271 ], [ 72.523740240000393, 24.508286280000448 ], [ 72.539272800000333, 24.51490245000025 ], [ 72.575744040000302, 24.478172460000337 ], [ 72.681447600000354, 24.464259090000382 ], [ 72.686066040000412, 24.456110310000327 ], [ 72.677307240000459, 24.442942410000398 ], [ 72.68836752000044, 24.408810990000404 ], [ 72.72899928000038, 24.366502710000475 ], [ 72.793732680000346, 24.380939160000366 ], [ 72.824329080000439, 24.367806090000329 ], [ 72.841901760000269, 24.371796960000268 ], [ 72.850752000000341, 24.365157390000377 ], [ 72.864506880000476, 24.372966330000395 ], [ 72.883462320000319, 24.354191430000412 ], [ 72.921121560000358, 24.359827590000236 ], [ 72.948278880000316, 24.382724490000442 ], [ 72.943306920000339, 24.430326930000376 ], [ 72.975159360000418, 24.438114810000457 ], [ 72.967157280000322, 24.464029140000378 ], [ 73.00917756000041, 24.493812660000344 ], [ 73.078252560000465, 24.490676790000407 ], [ 73.095450120000351, 24.476372100000219 ], [ 73.100053440000409, 24.479455950000329 ], [ 73.092831840000258, 24.489798750000261 ], [ 73.099424520000412, 24.497030070000449 ], [ 73.119434040000442, 24.501946680000458 ], [ 73.137730680000345, 24.496588620000352 ], [ 73.147734720000471, 24.474102030000381 ], [ 73.139988600000436, 24.425998470000195 ], [ 73.12158468000041, 24.40811070000035 ], [ 73.122091560000399, 24.394259340000247 ], [ 73.163274840000327, 24.35899617000041 ], [ 73.189241280000317, 24.360145470000248 ], [ 73.211455080000462, 24.377074110000308 ], [ 73.222792200000413, 24.376089420000199 ], [ 73.226289960000258, 24.33628422000038 ], [ 73.217619360000356, 24.328894410000373 ], [ 73.199537640000472, 24.333758550000312 ], [ 73.183595040000341, 24.316374240000414 ], [ 73.149846120000348, 24.336402840000289 ], [ 73.123449840000376, 24.302904390000265 ], [ 73.104682680000451, 24.260026770000252 ], [ 73.068133320000413, 24.236921790000451 ], [ 73.064327760000481, 24.205586760000358 ], [ 73.10619252000032, 24.162130620000312 ], [ 73.15694136000036, 24.126155640000377 ], [ 73.169968320000464, 24.10557804000041 ], [ 73.212996600000281, 24.100974900000381 ], [ 73.212117480000416, 24.065095860000383 ], [ 73.254810240000324, 24.014534220000257 ], [ 73.258881840000413, 24.025227210000196 ], [ 73.31601816000034, 24.063255450000383 ], [ 73.341447480000454, 24.071965740000394 ], [ 73.353029400000366, 24.12108531000041 ], [ 73.377186480000375, 24.13327545000044 ], [ 73.409706000000426, 24.076776150000342 ], [ 73.440449640000395, 24.057051570000397 ], [ 73.442236680000292, 24.019794090000403 ], [ 73.456661880000297, 23.993980740000325 ], [ 73.452435480000361, 23.965614810000261 ], [ 73.463524560000394, 23.942480130000433 ], [ 73.449845280000318, 23.928743160000352 ], [ 73.412067960000456, 23.922684810000362 ], [ 73.39197852000035, 23.887692900000388 ], [ 73.38034944000043, 23.811179490000256 ], [ 73.399014360000422, 23.796604980000325 ], [ 73.432695960000331, 23.802217290000328 ], [ 73.459939320000444, 23.748646500000405 ], [ 73.5207566400004, 23.715737190000311 ], [ 73.525080240000364, 23.697168390000286 ], [ 73.51699176000028, 23.6512316700003 ], [ 73.525164480000399, 23.628720600000406 ], [ 73.546940160000418, 23.625751950000279 ], [ 73.567445040000393, 23.647728690000406 ], [ 73.588700160000428, 23.654508300000373 ], [ 73.637440560000357, 23.625415440000324 ], [ 73.643650560000481, 23.592937860000404 ], [ 73.63421964000031, 23.565640320000284 ], [ 73.636229160000312, 23.524557390000439 ], [ 73.61599248000033, 23.480010180000363 ], [ 73.625217120000457, 23.45460678000029 ], [ 73.645561800000337, 23.440835340000319 ], [ 73.69232760000034, 23.453196750000473 ], [ 73.71871020000043, 23.430580740000437 ], [ 73.72565856000034, 23.413450230000251 ], [ 73.753369200000407, 23.456027070000346 ], [ 73.778642640000385, 23.441891940000346 ], [ 73.830730320000328, 23.452415370000324 ], [ 73.832788440000456, 23.429289600000345 ], [ 73.871610840000471, 23.390746380000223 ], [ 73.895877000000439, 23.334701220000341 ], [ 73.936052280000467, 23.340427470000407 ], [ 73.942463160000273, 23.370129540000391 ], [ 73.955140200000415, 23.377392540000358 ], [ 73.975531320000414, 23.375169450000271 ], [ 73.98695088000045, 23.339250000000334 ], [ 74.017790640000385, 23.329974330000255 ], [ 74.037827880000407, 23.298864840000363 ], [ 74.093961240000453, 23.291651520000357 ], [ 74.131554960000358, 23.271114150000358 ], [ 74.122138440000356, 23.177132370000436 ], [ 74.163534480000294, 23.153263740000341 ], [ 74.183029200000362, 23.157073620000233 ], [ 74.19061980000032, 23.177583090000439 ], [ 74.211063480000405, 23.185211400000469 ], [ 74.257689960000391, 23.165646930000321 ], [ 74.288184840000383, 23.09124447000039 ], [ 74.311498800000265, 23.076941400000351 ], [ 74.34725868000038, 23.016751470000372 ], [ 74.353872600000329, 22.995425610000325 ], [ 74.337103800000364, 22.974903090000339 ], [ 74.337711480000394, 22.962043080000342 ], [ 74.372638320000476, 22.921577100000377 ], [ 74.400974640000413, 22.905451620000235 ], [ 74.417420520000462, 22.924447560000203 ], [ 74.458752120000383, 22.917459150000411 ], [ 74.477755080000463, 22.847641920000399 ], [ 74.463014520000456, 22.814995950000366 ], [ 74.43863964000036, 22.814161380000428 ], [ 74.442046680000374, 22.790611890000264 ], [ 74.403042480000408, 22.726842300000214 ], [ 74.380886280000425, 22.64478048000035 ], [ 74.329899840000451, 22.650859890000334 ], [ 74.313647640000454, 22.642528140000366 ], [ 74.275806240000463, 22.652832600000295 ], [ 74.270539440000391, 22.6425369600002 ], [ 74.261476440000308, 22.647194190000391 ], [ 74.210416920000341, 22.576738140000316 ], [ 74.192748120000374, 22.574331630000358 ], [ 74.187719280000294, 22.563166140000362 ], [ 74.157131160000404, 22.546133010000403 ], [ 74.156879880000361, 22.527032670000267 ], [ 74.107762200000479, 22.532285520000414 ], [ 74.059147440000459, 22.558358700000497 ], [ 74.041370280000592, 22.543382070000519 ], [ 74.031681600000411, 22.509778950000396 ], [ 74.035612800000422, 22.491475650000268 ], [ 74.043609120000383, 22.489702740000496 ], [ 74.058197760000382, 22.506817860000353 ], [ 74.080972080000379, 22.505920200000332 ], [ 74.09049588000039, 22.49057205000048 ], [ 74.07638244000043, 22.470284340000376 ], [ 74.105825040000411, 22.462318620000474 ], [ 74.100899880000441, 22.443574500000352 ], [ 74.111487840000564, 22.427348670000356 ], [ 74.127791520000585, 22.42352340000042 ], [ 74.145123360000525, 22.453308630000322 ], [ 74.155530240000417, 22.45062519000038 ], [ 74.159411400000408, 22.435129800000425 ], [ 74.173818240000514, 22.435008660000392 ], [ 74.18943180000042, 22.44632076000039 ], [ 74.187737640000591, 22.473176670000385 ], [ 74.201513040000464, 22.476790620000429 ], [ 74.203698960000509, 22.440707550000297 ], [ 74.25190296000045, 22.437486810000394 ], [ 74.283531120000475, 22.400303040000267 ], [ 74.259127080000439, 22.401373500000375 ], [ 74.251648080000507, 22.390102530000263 ], [ 74.227477320000446, 22.381381170000395 ], [ 74.220264360000499, 22.365203400000325 ], [ 74.204151120000461, 22.357733220000227 ], [ 74.188492200000496, 22.324842450000347 ], [ 74.139120000000503, 22.333244400000297 ], [ 74.108754360000489, 22.370463810000501 ], [ 74.0737771200005, 22.354252470000517 ], [ 74.060705160000396, 22.293018540000503 ], [ 74.063652120000484, 22.27023684000045 ], [ 74.088285840000538, 22.240226520000533 ], [ 74.078997840000454, 22.220943930000431 ], [ 74.122196400000519, 22.210452990000533 ], [ 74.125678320000532, 22.174867890000314 ], [ 74.136507480000546, 22.161580830000503 ], [ 74.127602880000381, 22.140056520000371 ], [ 74.130807600000537, 22.107674250000514 ], [ 74.168720640000402, 22.105106910000359 ], [ 74.178176040000437, 22.09130442000037 ], [ 74.1639373200004, 22.083462270000268 ], [ 74.15965152000058, 22.062140820000366 ], [ 74.141713800000502, 22.059532800000397 ], [ 74.135211120000577, 22.043345760000307 ], [ 74.097630720000495, 22.019956380000224 ], [ 74.105859960000487, 22.007623950000493 ], [ 74.143960560000437, 21.995766360000289 ], [ 74.138330520000522, 21.97429515000033 ], [ 74.146791787000495, 21.955687673000398 ], [ 74.0466690060004, 21.922809601000324 ], [ 73.93636322000043, 21.863149643000213 ], [ 73.899513245000264, 21.854490280000391 ], [ 73.879600525000455, 21.83864021300036 ], [ 73.841522217000374, 21.838500977000365 ], [ 73.810516357000381, 21.823337555000364 ], [ 73.813568115000464, 21.81011962900044 ], [ 73.832107544000451, 21.810850143000323 ], [ 73.835670471000469, 21.793479919000333 ], [ 73.844963074000418, 21.790681839000456 ], [ 73.838378906000457, 21.784130096000411 ], [ 73.841293335000444, 21.768650055000421 ], [ 73.831207275000452, 21.76288986200035 ], [ 73.896362305000366, 21.700281143000382 ], [ 73.898101807000387, 21.667270660000327 ], [ 73.885627747000342, 21.6450595860004 ], [ 73.870269775000452, 21.638790131000405 ], [ 73.860252380000361, 21.641847610000355 ], [ 73.845237732000385, 21.633159637000347 ], [ 73.829032898000435, 21.639789581000343 ], [ 73.787612915000352, 21.625049591000391 ], [ 73.806838989000369, 21.602371216000279 ], [ 73.823150635000331, 21.600679398000409 ], [ 73.845031738000444, 21.521568298000432 ], [ 73.860786438000275, 21.495822906000456 ], [ 73.882568359000345, 21.509782791000418 ], [ 73.90360260000034, 21.508752823000293 ], [ 73.91047668500039, 21.52017021200021 ], [ 73.93377685500036, 21.52359008800039 ], [ 73.939407349000305, 21.510110855000391 ], [ 73.957283020000261, 21.51647186300039 ], [ 73.966316223000263, 21.539070129000379 ], [ 73.974456787000406, 21.524080276000461 ], [ 73.985687256000347, 21.521360397000365 ], [ 73.983520508000481, 21.542041779000385 ], [ 74.005340576000378, 21.540769577000333 ], [ 74.025558472000398, 21.552619934000347 ], [ 74.047149658000421, 21.549680710000359 ], [ 74.073677063000332, 21.559522629000469 ], [ 74.135200500000394, 21.55688095100038 ], [ 74.146812439000428, 21.550380707000443 ], [ 74.181831360000388, 21.561769485000411 ], [ 74.205238342000314, 21.529211044000419 ], [ 74.239196777000302, 21.55029106100028 ], [ 74.254966736000313, 21.536460876000206 ], [ 74.270111084000291, 21.535631180000337 ], [ 74.285346985000331, 21.554920197000342 ], [ 74.309967041000277, 21.567321777000416 ], [ 74.31581878700041, 21.543170929000382 ], [ 74.335517883000307, 21.540229797000393 ], [ 74.327720642000259, 21.495750427000416 ], [ 74.307762146000357, 21.480119705000334 ], [ 74.268379211000479, 21.474739075000457 ], [ 74.257591248000381, 21.463750839000227 ], [ 74.245819092000318, 21.463701248000348 ], [ 74.231033325000396, 21.479820251000262 ], [ 74.22303009000035, 21.475521088000392 ], [ 74.222633362000408, 21.458990097000367 ], [ 74.185539246000417, 21.467021942000258 ], [ 74.156486511000423, 21.453130722000367 ], [ 74.128921509000349, 21.463520050000227 ], [ 74.122459412000467, 21.450700760000416 ], [ 74.110977173000322, 21.448101044000282 ], [ 74.078147888000331, 21.457811356000263 ], [ 74.067161560000443, 21.481931686000394 ], [ 74.048545837000347, 21.419429779000382 ], [ 74.015792847000398, 21.41798019400045 ], [ 73.968696594000335, 21.392061234000323 ], [ 73.952842712000404, 21.402370453000401 ], [ 73.957008362000465, 21.34445190400038 ], [ 73.948486328000399, 21.297550201000263 ], [ 73.89199066200041, 21.262411118000443 ], [ 73.832138062000467, 21.267450333000227 ], [ 73.836349487000291, 21.242340088000276 ], [ 73.820137024000474, 21.221860886000286 ], [ 73.818778992000375, 21.203859329000409 ], [ 73.82134246800041, 21.195320129000322 ], [ 73.835906982000381, 21.195180893000384 ], [ 73.822547913000392, 21.171920776000206 ], [ 73.796310425000399, 21.18173027000023 ], [ 73.783660889000373, 21.165060043000381 ], [ 73.741622925000399, 21.167110443000411 ], [ 73.747970581000345, 21.151531219000447 ], [ 73.736686707000388, 21.138280869000312 ], [ 73.717071533000478, 21.141740799000218 ], [ 73.713195801000438, 21.150461197000368 ], [ 73.681312561000482, 21.152120590000266 ], [ 73.636398315000406, 21.132659912000349 ], [ 73.63745117200034, 21.153139114000339 ], [ 73.619697571000358, 21.157949448000466 ], [ 73.613166809000404, 21.176059723000321 ], [ 73.588302612000405, 21.167900085000383 ], [ 73.588798523000321, 21.154190063000385 ], [ 73.611473083000419, 21.154460907000384 ], [ 73.629013147000421, 21.1416775280004 ], [ 73.623596191000388, 21.137990952000393 ], [ 73.628723145000379, 21.120149612000375 ], [ 73.657730103000404, 21.121049881000317 ], [ 73.659942627000305, 21.108379364000257 ], [ 73.693389893000358, 21.100990295000258 ], [ 73.710586548000265, 21.119022369000277 ], [ 73.714782715000467, 21.107191086000341 ], [ 73.738891602000479, 21.101329803000283 ], [ 73.752609253000287, 21.114089966000279 ], [ 73.739067078000403, 21.094839096000271 ], [ 73.742240906000291, 21.081569672000342 ], [ 73.766370496000548, 21.067559182000707 ], [ 73.780080748000387, 21.071110565000481 ], [ 73.79148096000057, 21.06477417400049 ], [ 73.809192273000576, 21.079096286000492 ], [ 73.811295511000537, 21.058546862000583 ], [ 73.800066600000548, 21.047127631000478 ], [ 73.814626120000526, 21.025335932000701 ], [ 73.836656145000461, 21.012980689000472 ], [ 73.843282048000447, 20.993490764000512 ], [ 73.850128174000588, 21.001419067000427 ], [ 73.879188538000392, 20.986471176000407 ], [ 73.906448364000425, 20.98315048200044 ], [ 73.915382385000385, 20.964820862000352 ], [ 73.90178680400038, 20.961700439000367 ], [ 73.895019531000457, 20.940139771000418 ], [ 73.927322388000562, 20.899110794000705 ], [ 73.931060791000561, 20.848390579000466 ], [ 73.945098877000476, 20.840131760000759 ], [ 73.938346863000504, 20.760789871000441 ], [ 73.947181702000591, 20.760780334000799 ], [ 73.949531555000647, 20.742309570000714 ], [ 73.920906067000544, 20.72352981600045 ], [ 73.885566711000649, 20.729610443000638 ], [ 73.863601685000617, 20.694299698000464 ], [ 73.842758179000498, 20.702119827000502 ], [ 73.822647095000605, 20.693820953000738 ], [ 73.825431824000532, 20.673618317000717 ], [ 73.84150695800065, 20.675138474000448 ], [ 73.845352173000549, 20.667070389000571 ], [ 73.846412659000521, 20.623519897000676 ], [ 73.838287354000499, 20.615760803000512 ], [ 73.805961609000633, 20.601520538000614 ], [ 73.787055969000619, 20.602258682000581 ], [ 73.748207092000484, 20.567359924000471 ], [ 73.701019287000463, 20.578380585000446 ], [ 73.670707703000517, 20.562339783000709 ], [ 73.636772156000518, 20.579290390000494 ], [ 73.625946045000489, 20.62111091600076 ], [ 73.607307434000631, 20.636301041000536 ], [ 73.574195862000636, 20.651050568000471 ], [ 73.562942505000592, 20.647390366000536 ], [ 73.538375854000549, 20.673860550000597 ], [ 73.517807007000499, 20.670141220000517 ], [ 73.498435974000643, 20.653419495000492 ], [ 73.48741149900053, 20.675550461000512 ], [ 73.497291565000523, 20.686019897000619 ], [ 73.482612610000558, 20.717229843000666 ], [ 73.475189209000519, 20.721670151000694 ], [ 73.453697205000424, 20.710470200000316 ], [ 73.447296143000301, 20.70111084000041 ], [ 73.454528809000294, 20.686050415000295 ], [ 73.439918518000354, 20.664840698000205 ], [ 73.403648376000319, 20.652370453000344 ], [ 73.402732849000301, 20.642599106000375 ], [ 73.430786133000481, 20.620531082000412 ], [ 73.440361023000264, 20.59511947600032 ], [ 73.48081970200036, 20.583599091000394 ], [ 73.481796265000469, 20.543359756000314 ], [ 73.500740051000435, 20.540241241000331 ], [ 73.472267151000381, 20.51404953000025 ], [ 73.475936890000298, 20.495019913000419 ], [ 73.449012756000343, 20.466699600000254 ], [ 73.429740906000404, 20.414390564000314 ], [ 73.391349792000767, 20.390199661000622 ], [ 73.391578674001039, 20.37289047200079 ], [ 73.414787292000938, 20.381570816000817 ], [ 73.423431396001149, 20.352090836000912 ], [ 73.436943054001063, 20.28212165800079 ], [ 73.424621582000839, 20.276830673000802 ], [ 73.420410156000912, 20.256999969000844 ], [ 73.429916382001068, 20.206230164000942 ], [ 73.402640676071826, 20.195057114344422 ], [ 73.395286560000727, 20.20916938800076 ], [ 73.37632751500098, 20.20532035800062 ], [ 73.374313354000719, 20.192659378000769 ], [ 73.36479950000097, 20.200998306000599 ], [ 73.367599487000916, 20.213371277000704 ], [ 73.352851868000812, 20.198471069000675 ], [ 73.311149597000622, 20.207210541000791 ], [ 73.294059753001136, 20.193861008000852 ], [ 73.293632507001121, 20.153881073000946 ], [ 73.268463135001014, 20.139289856000971 ], [ 73.259523558000922, 20.12466847000087 ], [ 73.238121033000482, 20.12811088600057 ], [ 73.235488892000774, 20.140991211000426 ], [ 73.221488953000858, 20.120798111000624 ], [ 73.200691223000774, 20.129699707000896 ], [ 73.196098328000858, 20.156112671000812 ], [ 73.222099304001006, 20.171421051000891 ], [ 73.229156494001018, 20.184299469000848 ], [ 73.209930420000774, 20.197351456000831 ], [ 73.181137085000955, 20.202400208000768 ], [ 73.180175781000855, 20.208608627000842 ], [ 73.168952942000828, 20.199689865000778 ], [ 73.142181396001035, 20.204389572000878 ], [ 73.152381897000851, 20.176059723000833 ], [ 73.135826111001109, 20.172319412000888 ], [ 73.128028870000833, 20.157119751000835 ], [ 73.10514068600088, 20.15996933000082 ], [ 73.096160889000998, 20.174240112000859 ], [ 73.08648681600107, 20.157001495000827 ], [ 73.072448730000929, 20.163450241000987 ], [ 73.07435607900112, 20.192520142000944 ], [ 73.064239502001158, 20.203161240000838 ], [ 73.076858521001043, 20.229801178000969 ], [ 73.110466003001022, 20.232130051000809 ], [ 73.108520508000879, 20.238550186000793 ], [ 73.136848450000855, 20.260469437000836 ], [ 73.146286011001109, 20.280530930000793 ], [ 73.153556824000987, 20.27701950100078 ], [ 73.161293030001048, 20.291791916000875 ], [ 73.169097900000907, 20.282318115000805 ], [ 73.179542542001116, 20.289861679000921 ], [ 73.177101135000783, 20.312322617000916 ], [ 73.161399841001071, 20.317190170000913 ], [ 73.141792297000904, 20.317461014000912 ], [ 73.134292603000858, 20.305328369000961 ], [ 73.112869263000903, 20.304941177000899 ], [ 73.121955872001081, 20.332878113000845 ], [ 73.107376099001158, 20.360710144000905 ], [ 73.090896606001081, 20.326839447000907 ], [ 73.050476074000301, 20.322998047000283 ], [ 73.04416656500041, 20.291112900000257 ], [ 73.026519775000281, 20.294120789000374 ], [ 73.019836426000381, 20.317398071000412 ], [ 73.020492554000327, 20.290901184000347 ], [ 72.990463257000386, 20.292089462000433 ], [ 72.984092712000404, 20.271680832000413 ], [ 72.945976257000268, 20.293430328000341 ], [ 72.924591064000367, 20.278659821000304 ], [ 72.923751831000288, 20.268199921000416 ], [ 72.94084930400038, 20.246820450000314 ], [ 72.969627380000418, 20.233940125000288 ], [ 72.975433350000344, 20.219200134000289 ], [ 72.969245911000428, 20.210910797000338 ], [ 72.928428650000285, 20.223369598000261 ], [ 72.874542236000366, 20.225809097000422 ], [ 72.872001648000321, 20.208240509000404 ], [ 72.850288391000447, 20.207941055000276 ], [ 72.844139099000415, 20.197790146000386 ], [ 72.849670410000385, 20.1892509460003 ], [ 72.835533142000372, 20.187660217000371 ], [ 72.828842163000388, 20.156570435000333 ], [ 72.835342407000326, 20.144641876000378 ], [ 72.815856934000408, 20.153280258000336 ], [ 72.802062988000387, 20.148469925000313 ], [ 72.801849365000407, 20.125019073000317 ], [ 72.737777112500339, 20.136516315000335 ], [ 72.750399169000445, 20.202390155000387 ], [ 72.738083160000372, 20.24631774000045 ], [ 72.773407440000312, 20.354062770000326 ], [ 72.804242880000459, 20.374903440000367 ], [ 72.82292364000034, 20.368079550000459 ], [ 72.842895360000398, 20.376059130000272 ], [ 72.881328600000359, 20.371941540000421 ], [ 72.898407720000421, 20.381554170000356 ], [ 72.88535160000032, 20.397426390000362 ], [ 72.902898000000334, 20.407516650000332 ], [ 72.903220560000364, 20.415169260000255 ], [ 72.894893400000399, 20.421719370000403 ], [ 72.871801200000391, 20.413830510000309 ], [ 72.858596040000464, 20.418775740000399 ], [ 72.874913400000366, 20.445299370000441 ], [ 72.887430600000414, 20.437817760000314 ], [ 72.893909520000364, 20.443078350000349 ], [ 72.885807360000399, 20.460081690000379 ], [ 72.85352724000046, 20.460675240000285 ], [ 72.859244760000479, 20.481417990000409 ], [ 72.879844320000473, 20.499772590000418 ], [ 72.875036520000435, 20.516595750000249 ], [ 72.881899920000365, 20.536141680000469 ], [ 72.874093320000327, 20.545263180000404 ], [ 72.89033400000028, 20.576302740000415 ], [ 72.881271360000426, 20.639307780000365 ], [ 72.88568316000044, 20.6384734800003 ], [ 72.886173120000478, 20.652266160000352 ], [ 72.879817680000428, 20.658398760000239 ], [ 72.884535840000353, 20.648952721000398 ], [ 72.876622320000365, 20.652827310000418 ], [ 72.874129320000293, 20.648649510000268 ], [ 72.865234800000337, 20.655857250000281 ], [ 72.828935640000395, 20.768146021000348 ], [ 72.859672440000338, 20.738041470000383 ], [ 72.873527036000382, 20.742162327500239 ], [ 72.872179952000295, 20.748277936000193 ], [ 72.839693160000309, 20.771986231000255 ], [ 72.823845960000426, 20.794686301000354 ], [ 72.815783760000386, 20.83623966100032 ], [ 72.784233721000362, 20.902971151000258 ], [ 72.781588440500457, 20.933804745500481 ], [ 72.808730820500386, 20.937258855000266 ], [ 72.826046640000413, 20.95508290550049 ], [ 72.813145320000388, 20.952898830000493 ], [ 72.813678840000478, 20.958957090000297 ], [ 72.806408641000303, 20.963993580000249 ], [ 72.810522721000382, 20.951554050000425 ], [ 72.78143292100043, 20.938202820000299 ], [ 72.767286360000469, 20.920209750000311 ], [ 72.733479120000482, 20.995966531000306 ], [ 72.723491641000408, 21.044290861000434 ], [ 72.741332160000468, 21.059652690000405 ], [ 72.757880522998789, 21.056396912608704 ], [ 72.713790359000427, 21.069483661000334 ], [ 72.695323800000438, 21.061085041000354 ], [ 72.688690800000359, 21.082599631000392 ], [ 72.705463560000453, 21.127045410000335 ], [ 72.714363840000374, 21.12927588100041 ], [ 72.712111680000362, 21.138097681000431 ], [ 72.746532720000346, 21.143706390000432 ], [ 72.78988212000047, 21.177567001000284 ], [ 72.788305551500343, 21.18469665150036 ], [ 72.751240800000346, 21.17443140100039 ], [ 72.736959240000317, 21.144552840000472 ], [ 72.666892800000483, 21.154229369000404 ], [ 72.656706600000348, 21.123400859000355 ], [ 72.66357035900046, 21.10055508000039 ], [ 72.652731840000286, 21.076233840000441 ], [ 72.621999000000301, 21.083792940000251 ], [ 72.611069040000473, 21.124348650000343 ], [ 72.607512960000406, 21.185533981000276 ], [ 72.621446040000365, 21.175812990000395 ], [ 72.615971879000313, 21.169630891000395 ], [ 72.627357780000295, 21.167340210500356 ], [ 72.630493920000447, 21.173835016000339 ], [ 72.610706879000475, 21.186130500000331 ], [ 72.607540680000398, 21.205112760000475 ], [ 72.611421840000389, 21.21522363100047 ], [ 72.64222344000035, 21.212153280000393 ], [ 72.655045988710981, 21.231524770284068 ], [ 72.623843641000462, 21.240472320000322 ], [ 72.63019152100037, 21.261538259000417 ], [ 72.617190121000419, 21.256627680000463 ], [ 72.623572200000467, 21.249302850000333 ], [ 72.607314601000439, 21.237373440000397 ], [ 72.602303041000368, 21.262792500000216 ], [ 72.608295961000465, 21.286932210000373 ], [ 72.61706304000046, 21.288929490000271 ], [ 72.604799640000465, 21.313956060000237 ], [ 72.634836601000302, 21.362940450000337 ], [ 72.66400272000044, 21.36687353900038 ], [ 72.673026121000362, 21.354207210000368 ], [ 72.669366001000412, 21.371123790000411 ], [ 72.633322801000475, 21.374061390000293 ], [ 72.69458976000027, 21.422192220000284 ], [ 72.672434280000346, 21.414660390000392 ], [ 72.668330280000418, 21.448210319000339 ], [ 72.752247360000297, 21.555420570000422 ], [ 72.789012720000471, 21.590726399000346 ], [ 72.824699880000367, 21.60916524000038 ], [ 72.833168880000358, 21.627561240000318 ], [ 72.830432880000444, 21.64680009000034 ], [ 72.809488440000337, 21.663224911000327 ], [ 72.773997480000276, 21.669758731000229 ], [ 72.739966320000406, 21.689586090000375 ], [ 72.705000600000346, 21.677215140000328 ], [ 72.670488378689299, 21.685856545224055 ], [ 72.655806960000348, 21.679389900000331 ], [ 72.597681000000478, 21.680257230000336 ], [ 72.53797032100033, 21.643485570000337 ], [ 72.512982720000423, 21.655495890000395 ], [ 72.506546640000465, 21.690875250000431 ], [ 72.521146440000336, 21.720704130000399 ], [ 72.519621120000465, 21.741110730000287 ], [ 72.532386000000372, 21.782367090000378 ], [ 72.604592460000333, 21.914329635000172 ], [ 72.618890040000281, 21.921704640000314 ], [ 72.612000360000422, 21.941327430000342 ], [ 72.625455000000443, 21.950099730000318 ], [ 72.670023720000358, 21.95579475000028 ], [ 72.689218560000313, 21.968234550000318 ], [ 72.712339920000431, 21.954131190000453 ], [ 72.728481240000292, 21.956170680000298 ], [ 72.707051160000333, 21.964904280000269 ], [ 72.713275200000339, 21.986964720000344 ], [ 72.692871840000407, 21.971172060000356 ], [ 72.633114720000435, 21.962027160000446 ], [ 72.585477361000358, 21.922332750000407 ], [ 72.549080640000398, 21.925992510000356 ], [ 72.55482228000028, 21.917059650000226 ], [ 72.594745200000432, 21.918453390000423 ], [ 72.595003680000275, 21.908020410000347 ], [ 72.571764600000392, 21.879799830000366 ], [ 72.535827241000447, 21.881754090000413 ], [ 72.529543800000397, 21.890013210000404 ], [ 72.564085620000412, 21.906940725000425 ], [ 72.511937640000269, 21.900962790000278 ], [ 72.488085121000324, 21.933853740000472 ], [ 72.476831521000406, 22.005239400000221 ], [ 72.492346440000404, 22.010324940000373 ], [ 72.501640920000455, 22.027997160000439 ], [ 72.49800780000038, 22.049853931000257 ], [ 72.487894680000295, 22.031684010000333 ], [ 72.474501241000326, 22.041505260000406 ], [ 72.518032800000469, 22.086826110000231 ], [ 72.500698440000463, 22.09039839000036 ], [ 72.523247041000332, 22.100434740000367 ], [ 72.535412880000365, 22.11830928000046 ], [ 72.543237840000302, 22.153797720000284 ], [ 72.537401521000334, 22.169451510000385 ], [ 72.549163800000372, 22.18482513000032 ], [ 72.534207600000286, 22.184218350000378 ], [ 72.598585680000383, 22.223370690000309 ], [ 72.505077840000411, 22.217029650000256 ], [ 72.412099200000398, 22.167743131000293 ], [ 72.310165560000314, 22.161553920000415 ], [ 72.318605040000307, 22.145837130000473 ], [ 72.347410800000375, 22.132880910000324 ], [ 72.366516000000388, 22.111823250000441 ], [ 72.337326120000341, 22.053057210000361 ], [ 72.280365840000457, 21.988446210000404 ], [ 72.229300560000354, 22.01337846000024 ], [ 72.217712520000418, 22.042992870000376 ], [ 72.219282840000346, 22.019901660000471 ], [ 72.210597480000388, 22.013109360000328 ], [ 72.198992520000331, 22.024469340000394 ], [ 72.184056120000321, 22.018854420000309 ], [ 72.172400040000412, 22.039963380000358 ], [ 72.181330920000391, 22.012628580000353 ], [ 72.194295600000373, 22.01834574000037 ], [ 72.205315920000373, 22.010501790000262 ], [ 72.225184680000325, 22.013442180000368 ], [ 72.240484680000407, 22.001499540000225 ], [ 72.246513599000366, 21.9286168200004 ], [ 72.257778719000385, 21.905121690000271 ], [ 72.261829080000439, 21.868959510000309 ], [ 72.271281600000407, 21.863634660000287 ], [ 72.285565320000444, 21.830890410000279 ], [ 72.284400359000415, 21.795368040000312 ], [ 72.298267200000282, 21.769604010000251 ], [ 72.296541001000378, 21.739779630000442 ], [ 72.260734320000438, 21.773766599000282 ], [ 72.241624800000409, 21.773132280000311 ], [ 72.285803639000335, 21.709143000000267 ], [ 72.272160311500386, 21.707098741000323 ], [ 72.290032920000385, 21.704095890000417 ], [ 72.295853400000453, 21.67655139000027 ], [ 72.312859800000297, 21.66541578000033 ], [ 72.316784880000341, 21.642760980000446 ], [ 72.280700279000314, 21.572761589000379 ], [ 72.244770840000342, 21.458642040000257 ], [ 72.188784360000341, 21.395364300000267 ], [ 72.116192880000312, 21.281838841000365 ], [ 72.115810560000341, 21.24434763100038 ], [ 72.106512119000399, 21.23037855000041 ], [ 72.113014800000258, 21.224859840000306 ], [ 72.110470679000343, 21.198797640000407 ], [ 72.084819960000345, 21.192128100000446 ], [ 72.023428619000356, 21.156008895000241 ], [ 72.009409679000385, 21.142930230000331 ], [ 72.01305036000042, 21.130862400000353 ], [ 71.995020121000323, 21.138033331000429 ], [ 71.97634188100028, 21.128266081000334 ], [ 71.976973321000287, 21.118450321000353 ], [ 71.8996096810003, 21.107820510000238 ], [ 71.87909400100034, 21.087827010000296 ], [ 71.812420560000476, 21.068878051000354 ], [ 71.801383321000401, 21.055519440000353 ], [ 71.806853160000458, 21.038765940000246 ], [ 71.785232641000448, 21.039486661000467 ], [ 71.784128521000412, 21.030070141000465 ], [ 71.726081401000272, 21.011078341000427 ], [ 71.718353281000361, 21.017079180000394 ], [ 71.70878700100036, 21.00408750000031 ], [ 71.714949120000313, 20.996533441000281 ], [ 71.693770681000274, 21.001606560000369 ], [ 71.676355681000359, 20.983405321000475 ], [ 71.677984320000348, 20.995324470000355 ], [ 71.6568570000004, 20.9971092600004 ], [ 71.642900160000409, 20.990664810000453 ], [ 71.638451280000368, 20.973190770000429 ], [ 71.597211840000398, 20.967446250000307 ], [ 71.578870560000382, 20.954368800000282 ], [ 71.53306272000026, 20.944920240000272 ], [ 71.594900640000333, 20.995009920000257 ], [ 71.555391360000328, 20.968668000000321 ], [ 71.535420000000443, 20.985279750000416 ], [ 71.541232200000479, 20.961137520000193 ], [ 71.516998080000349, 20.945787840000435 ], [ 71.506902960000275, 20.921967180000365 ], [ 71.491455000000371, 20.91380364000031 ], [ 71.476484760000403, 20.890117260000352 ], [ 71.448893280000448, 20.882016360000307 ], [ 71.436165480000341, 20.869030170000315 ], [ 71.39672136000047, 20.865544020000357 ], [ 71.393357520000279, 20.874511980000364 ], [ 71.380498680000414, 20.874876120000295 ], [ 71.37438012000041, 20.86809057000022 ], [ 71.381926800000429, 20.857150890000469 ], [ 71.322761880000371, 20.848071690000268 ], [ 71.210603160000574, 20.801901960000578 ], [ 71.204092560000618, 20.79076401000043 ], [ 71.160537600000737, 20.780983530000526 ], [ 71.149137480000547, 20.758510350000563 ], [ 71.09428536000047, 20.758726980000517 ], [ 71.078596560000733, 20.750259690000576 ], [ 71.080234920000748, 20.738762280000515 ], [ 71.064848520000794, 20.734284420000563 ], [ 70.999942462000718, 20.741214731000639 ], [ 70.972650360000671, 20.728869750000513 ], [ 70.958724480000569, 20.736584730000629 ], [ 70.913091240000711, 20.739073410000458 ], [ 70.877784960000668, 20.728751580000505 ], [ 70.86936744000036, 20.711272770000448 ], [ 70.873628400000314, 20.705062320000309 ], [ 70.850152800000387, 20.706382620000284 ], [ 70.83681444000041, 20.697564330000205 ], [ 70.817698800000414, 20.714123520000214 ], [ 70.815243600000315, 20.726109720000409 ], [ 70.793141400000309, 20.730602520000389 ], [ 70.79551596000033, 20.719831950000241 ], [ 70.804216800000461, 20.725387110000327 ], [ 70.814840760000379, 20.718351630000313 ], [ 70.812430920000281, 20.700145980000343 ], [ 70.835722200000419, 20.69543691000041 ], [ 70.839007920000313, 20.690922330000433 ], [ 70.823081160000413, 20.691623700000378 ], [ 70.785153360000379, 20.713164390000259 ], [ 70.743039480000391, 20.72005506000022 ], [ 70.673176440000304, 20.758619340000337 ], [ 70.654903560000434, 20.760241950000307 ], [ 70.649133120000329, 20.766260250000357 ], [ 70.661229840000374, 20.769660450000288 ], [ 70.663068000000408, 20.77925769000035 ], [ 70.654962600000374, 20.777751360000423 ], [ 70.65719640000043, 20.789769060000197 ], [ 70.652997720000315, 20.778256890000307 ], [ 70.636750920000395, 20.780839260000278 ], [ 70.632682200000374, 20.769160230000466 ], [ 70.61359068000047, 20.771987940000315 ], [ 70.544992320000404, 20.807416620000197 ], [ 70.581576240000459, 20.798595180000405 ], [ 70.580778120000332, 20.816581320000353 ], [ 70.549271280000426, 20.810652930000288 ], [ 70.540277400000377, 20.818206270000474 ], [ 70.545037320000404, 20.810152440000422 ], [ 70.539298920000419, 20.803926240000408 ], [ 70.487203680000391, 20.835215100000369 ], [ 70.448423400000479, 20.847935430000405 ], [ 70.407834480000361, 20.879073450000305 ], [ 70.416700920000324, 20.881386450000377 ], [ 70.409143440000321, 20.884196160000329 ], [ 70.413129000000367, 20.891148840000426 ], [ 70.403770800000359, 20.883668670000418 ], [ 70.320103560000348, 20.927573640000446 ], [ 70.1589211200004, 21.054092220000257 ], [ 70.134976080000399, 21.079177200000288 ], [ 70.149774600000342, 21.07214415000027 ], [ 70.154917200000455, 21.073573710000289 ], [ 70.13342052000047, 21.090767310000388 ], [ 70.132027320000475, 21.080716650000454 ], [ 70.096719240000482, 21.108611160000294 ], [ 70.035844680000366, 21.170664630000374 ], [ 70.046950320000349, 21.20228568000033 ], [ 70.032594240000378, 21.17926539000041 ], [ 70.02154368000032, 21.185941410000339 ], [ 69.762407400000257, 21.472462530000314 ], [ 69.789524400000403, 21.45084417000038 ], [ 69.804423720000386, 21.451887540000371 ], [ 69.803338320000478, 21.459573810000393 ], [ 69.786363600000357, 21.455826750000369 ], [ 69.724628280000445, 21.513918060000378 ], [ 69.709249800000407, 21.53270466000032 ], [ 69.727222080000274, 21.53889981000026 ], [ 69.728847480000297, 21.551471370000343 ], [ 69.717189960000326, 21.536950770000431 ], [ 69.70488588000029, 21.535604730000443 ], [ 69.593242320000456, 21.642180534000374 ], [ 69.599427120000428, 21.650505984000347 ], [ 69.628866120000282, 21.648752910000269 ], [ 69.595670880000341, 21.653166420000389 ], [ 69.589701720000448, 21.661813260000315 ], [ 69.57919800000036, 21.651881490000278 ], [ 69.590406600000335, 21.637910430000375 ], [ 69.579345600000295, 21.638657250000335 ], [ 69.444824040000412, 21.761522550000393 ], [ 69.461615880000295, 21.749588370000254 ], [ 69.485280840000257, 21.74043429000028 ], [ 69.491923920000318, 21.741630390000296 ], [ 69.459572160000334, 21.753367650000314 ], [ 69.445390680000401, 21.765304890000323 ], [ 69.448186440000256, 21.770339310000338 ], [ 69.442356240000322, 21.762706320000234 ], [ 69.431339160000391, 21.768294420000245 ], [ 69.376572360000466, 21.825628920000327 ], [ 69.287655600000392, 21.891534930000375 ], [ 69.218605080000259, 21.957273900000416 ], [ 68.95766196000028, 22.238347410000301 ], [ 68.951831760000346, 22.249463310000237 ], [ 68.957238960000268, 22.25972709000041 ], [ 68.936303880000423, 22.304079990000389 ], [ 68.942319840000437, 22.331387160000247 ], [ 68.956053480000435, 22.337528940000254 ], [ 68.956957440000451, 22.365307890000395 ], [ 68.970669120000366, 22.393139310000322 ], [ 68.976694800000359, 22.402191330000221 ], [ 68.996616187500479, 22.402638428000273 ], [ 68.979966840000372, 22.405361130000472 ], [ 68.983316280000395, 22.412276280000299 ], [ 69.008421960000362, 22.442331420000357 ], [ 69.06751128000036, 22.480667730000278 ], [ 69.083936280000444, 22.47455916000041 ], [ 69.073278120000396, 22.454100540000297 ], [ 69.043111920000399, 22.438454130000366 ], [ 69.045684840000263, 22.404064950000361 ], [ 69.034898880000469, 22.393929150000474 ], [ 69.045776280000382, 22.401293310000312 ], [ 69.078022560000363, 22.386781530000292 ], [ 69.09825168000043, 22.396833630000458 ], [ 69.102356040000416, 22.409603550000327 ], [ 69.130036080000423, 22.398111720000372 ], [ 69.16869144000043, 22.41190674000029 ], [ 69.176014560000453, 22.424075460000438 ], [ 69.192900000000407, 22.421666430000414 ], [ 69.199298640000336, 22.39275366000038 ], [ 69.177526560000274, 22.378780530000313 ], [ 69.181803360000288, 22.37129514000037 ], [ 69.171104160000368, 22.360196250000229 ], [ 69.175360080000473, 22.347734580000349 ], [ 69.166442520000317, 22.346822070000314 ], [ 69.168935160000331, 22.333262400000194 ], [ 69.157922760000417, 22.315548960000399 ], [ 69.183946080000339, 22.280776380000475 ], [ 69.222448080000447, 22.25822157000033 ], [ 69.285176280000258, 22.269984660000205 ], [ 69.293243880000432, 22.284728820000282 ], [ 69.319056960000466, 22.289567400000408 ], [ 69.338809800000433, 22.309085610000295 ], [ 69.332528880000325, 22.327470180000205 ], [ 69.353392680000297, 22.326312600000335 ], [ 69.364731960000256, 22.317577020000329 ], [ 69.416771040000469, 22.315757580000422 ], [ 69.446463840000376, 22.330865790000473 ], [ 69.482618280000452, 22.33256238100023 ], [ 69.497271720000299, 22.364699041000392 ], [ 69.524785441000347, 22.38134679000035 ], [ 69.5128644010004, 22.425663240000347 ], [ 69.529453561000366, 22.422461220000457 ], [ 69.553156681000303, 22.398842520000414 ], [ 69.545386080000299, 22.393993410000462 ], [ 69.555735720000257, 22.388110560000257 ], [ 69.558366601000444, 22.375434060000373 ], [ 69.545908080000345, 22.375029330000416 ], [ 69.561125641000274, 22.365194400000291 ], [ 69.556781161000345, 22.340601630000435 ], [ 69.574733281000306, 22.368219480000448 ], [ 69.592274280000481, 22.365368821000231 ], [ 69.593092921000448, 22.348162711000327 ], [ 69.576650280000422, 22.339189440000325 ], [ 69.582009961000381, 22.336841160000347 ], [ 69.574152961000266, 22.327145010000265 ], [ 69.576608881000425, 22.305547710000326 ], [ 69.590739859333667, 22.305611387333613 ], [ 69.595759743000315, 22.320323815000336 ], [ 69.610291261000384, 22.330531965000318 ], [ 69.607196640000438, 22.353938190000292 ], [ 69.614114262000442, 22.335011913000415 ], [ 69.606294439000465, 22.322918080000306 ], [ 69.599053936000473, 22.318889445000309 ], [ 69.592709384557679, 22.306161769351604 ], [ 69.610104862000355, 22.325487314000441 ], [ 69.618505321000384, 22.341272130000334 ], [ 69.618440520000263, 22.367812230000311 ], [ 69.654207961000395, 22.343379480000408 ], [ 69.657199200000321, 22.329190980000305 ], [ 69.666160321000405, 22.328032500000347 ], [ 69.682273561000329, 22.299935220000464 ], [ 69.665889600000298, 22.335191550000445 ], [ 69.672215880000465, 22.336057890000347 ], [ 69.66154908100026, 22.347019620000367 ], [ 69.647045041000297, 22.351898700000447 ], [ 69.659212320000449, 22.357682280000233 ], [ 69.654913921000343, 22.374711450000405 ], [ 69.663479761000303, 22.394586060000336 ], [ 69.699742561000448, 22.397261130000288 ], [ 69.698028241000372, 22.414679010000327 ], [ 69.708724201000393, 22.427950050000391 ], [ 69.703991641000471, 22.444931430000338 ], [ 69.713858881000476, 22.456750680000368 ], [ 69.73012440000042, 22.456828440000265 ], [ 69.737105520000398, 22.440462390000391 ], [ 69.728170320000402, 22.439546910000331 ], [ 69.752940480000348, 22.423316760000375 ], [ 69.759846360000267, 22.438394280000352 ], [ 69.793611840000381, 22.39674660000037 ], [ 69.808564079000405, 22.405303710000339 ], [ 69.821079840000436, 22.426296750000404 ], [ 69.829644959000404, 22.459856490000334 ], [ 69.832569600000397, 22.453383330000293 ], [ 69.867718560000355, 22.446973260000334 ], [ 69.90007391900042, 22.467335219000347 ], [ 69.911924759000385, 22.466424149000431 ], [ 69.913462319000416, 22.48846901900032 ], [ 69.931866240000375, 22.48920540000023 ], [ 69.919606799000405, 22.494192120000321 ], [ 69.930064800000366, 22.509902699000236 ], [ 69.953406120000409, 22.505097239000349 ], [ 69.954674759000454, 22.493508030000385 ], [ 69.980383439000434, 22.468211729000359 ], [ 69.976948320000304, 22.4814767390003 ], [ 69.955883280000364, 22.496046210000259 ], [ 69.955485840000335, 22.505753430000198 ], [ 69.967863359000319, 22.503197070000397 ], [ 69.955804079000472, 22.509302309000304 ], [ 69.976308240000321, 22.506897510000329 ], [ 69.958637640000347, 22.510096920000365 ], [ 69.965679599000453, 22.517514540000377 ], [ 69.949591920000273, 22.511104740000462 ], [ 69.944685120000372, 22.526029439000354 ], [ 69.963387120000391, 22.525566389000403 ], [ 69.955240679000383, 22.530279240000311 ], [ 69.981817319000413, 22.541373540000279 ], [ 69.977308680000476, 22.524069960000304 ], [ 69.989605199000323, 22.522732920000351 ], [ 69.985661040000366, 22.528470240000388 ], [ 69.978138480000382, 22.524547230000337 ], [ 69.984637199000474, 22.539327660000424 ], [ 69.98235443900046, 22.543257600000345 ], [ 69.975801720000334, 22.543578179000349 ], [ 70.001503919000356, 22.54757490000037 ], [ 69.993141119000313, 22.537788210000429 ], [ 69.995519279000462, 22.519171350000363 ], [ 70.000684919000264, 22.52128950000025 ], [ 69.996799439000313, 22.540989420000244 ], [ 70.005124079000382, 22.527753930000301 ], [ 70.003699919000326, 22.545699569000362 ], [ 70.025817960000325, 22.550406029000385 ], [ 70.015454639000382, 22.538287530000332 ], [ 70.013617560000341, 22.531897080000419 ], [ 70.01896644000044, 22.538300760000368 ], [ 70.020759959000372, 22.527577440000414 ], [ 70.021781999000382, 22.537996200000407 ], [ 70.027894080000294, 22.518935010000348 ], [ 70.023647520000281, 22.539978539000401 ], [ 70.038663840000368, 22.560556319000341 ], [ 70.061993280000479, 22.554173340000432 ], [ 70.063777799000434, 22.544505809000327 ], [ 70.082320679000418, 22.549666410000384 ], [ 70.086219480000352, 22.540712849000386 ], [ 70.088885999000411, 22.548423059000243 ], [ 70.116776279000419, 22.548335400000383 ], [ 70.119685439000421, 22.534549470000343 ], [ 70.127005319000318, 22.548862620000307 ], [ 70.141754519000358, 22.545747270000277 ], [ 70.144700759000386, 22.553266230000361 ], [ 70.17114348000041, 22.555994130000443 ], [ 70.167187439000372, 22.572270900000376 ], [ 70.211392920000378, 22.624511310000344 ], [ 70.219273680000299, 22.650807420000206 ], [ 70.231399560000341, 22.656826350000301 ], [ 70.245888480000474, 22.64977125000047 ], [ 70.248817800000381, 22.660805250000408 ], [ 70.240518720000466, 22.654030230000274 ], [ 70.235076600000468, 22.658326200000431 ], [ 70.244061840000313, 22.672661130000279 ], [ 70.226595000000373, 22.67792766000025 ], [ 70.257692160000317, 22.694009400000368 ], [ 70.255146240000329, 22.703578290000394 ], [ 70.247152800000265, 22.694652900000335 ], [ 70.243686720000369, 22.700807910000321 ], [ 70.250737320000383, 22.718887650000227 ], [ 70.255953720000321, 22.715321220000362 ], [ 70.255964520000362, 22.737465540000244 ], [ 70.284094920000314, 22.749373980000257 ], [ 70.30120140000048, 22.768468560000258 ], [ 70.307623800000385, 22.80303108000021 ], [ 70.405926480000403, 22.942022310000254 ], [ 70.422919920000481, 22.977574650000406 ], [ 70.441115400000342, 22.974772680000342 ], [ 70.459175880000373, 22.991514209000286 ], [ 70.493856480000318, 23.05731806900036 ], [ 70.498093320000407, 23.089252590000399 ], [ 70.476945120000323, 23.068342080000434 ], [ 70.442804880000324, 23.063094810000393 ], [ 70.407656280000367, 23.031210780000379 ], [ 70.402556160000415, 23.036822010000321 ], [ 70.408270800000366, 23.05827504000041 ], [ 70.397282880000375, 23.059434150000243 ], [ 70.393548600000315, 23.046275520000222 ], [ 70.401134520000369, 23.02450929000031 ], [ 70.384051439000473, 23.022637289000386 ], [ 70.399940760000391, 23.011162560000344 ], [ 70.394995800000345, 23.004781649000392 ], [ 70.379249400000447, 23.000415390000398 ], [ 70.356670199000348, 22.983934950000332 ], [ 70.391326321000406, 22.998314340000434 ], [ 70.39451736000035, 22.962735899000336 ], [ 70.376750640000466, 22.932451080000419 ], [ 70.33881528000029, 22.923309780000409 ], [ 70.308306359000255, 22.930432020000296 ], [ 70.251123960000427, 22.922934300000406 ], [ 70.245576359000324, 22.954472820000319 ], [ 70.227969839000309, 22.987010340000381 ], [ 70.228561447000459, 23.015070340000364 ], [ 70.218186151000339, 23.016292154000382 ], [ 70.227892080000402, 22.952173770000343 ], [ 70.217285400000321, 22.952612880000402 ], [ 70.193585880000342, 22.926981150000415 ], [ 70.164164160000439, 22.931450190000362 ], [ 70.122284280000429, 22.95890028100041 ], [ 70.149715200000401, 22.934742750000453 ], [ 70.096442760000343, 22.902360750000298 ], [ 70.018533360000276, 22.886244091000378 ], [ 69.95130552000029, 22.893099300000472 ], [ 69.9392498400004, 22.889819070000328 ], [ 69.940621440000427, 22.877495010000416 ], [ 69.901561800000309, 22.864447530000348 ], [ 69.889037760000406, 22.873264560000337 ], [ 69.844053240000392, 22.865024250000317 ], [ 69.826224240000442, 22.853656350000279 ], [ 69.828924600000391, 22.848259500000324 ], [ 69.81236064000035, 22.849630200000263 ], [ 69.75343944000042, 22.81168251000031 ], [ 69.750092880000466, 22.778068590000316 ], [ 69.728106960000332, 22.765470570000332 ], [ 69.715882440000314, 22.74360363000045 ], [ 69.679562760000465, 22.755068010000286 ], [ 69.66541548000032, 22.74953706000025 ], [ 69.622309800000323, 22.766047560000459 ], [ 69.577772040000298, 22.766117310000368 ], [ 69.541463880000322, 22.780479330000333 ], [ 69.553306080000311, 22.797154440000327 ], [ 69.53869296000039, 22.784046120000369 ], [ 69.510578760000385, 22.789127070000291 ], [ 69.490434959000311, 22.776618421000364 ], [ 69.446326680000425, 22.77630360000029 ], [ 69.40181195900044, 22.807595431000266 ], [ 69.332527440000376, 22.830192091000299 ], [ 69.314937119000376, 22.833127080000224 ], [ 69.272055000000307, 22.822207471000468 ], [ 69.192642959000409, 22.838011831000358 ], [ 68.867916840000476, 23.033159640000349 ], [ 68.788546920000385, 23.075551890000327 ], [ 68.761319400000332, 23.081279940000286 ], [ 68.720527440000467, 23.115462119000313 ], [ 68.628348720000304, 23.17260636000043 ], [ 68.58185436000042, 23.226003630000378 ], [ 68.570891640000355, 23.24992833000033 ], [ 68.549678280000364, 23.259572460000356 ], [ 68.544159840000304, 23.254825950000225 ], [ 68.537178360000325, 23.278174380000451 ], [ 68.538982680000402, 23.265576270000452 ], [ 68.526601200000414, 23.265689580000412 ], [ 68.524855920000391, 23.279133330000377 ], [ 68.504439600000467, 23.280556410000372 ], [ 68.506149240000354, 23.292564569000319 ], [ 68.52170160000037, 23.305708350000259 ], [ 68.491680840000299, 23.311347929000362 ], [ 68.465588691000335, 23.336554882000428 ], [ 68.465643063000414, 23.348571014000413 ], [ 68.490627403000474, 23.383549091000418 ], [ 68.489556646000437, 23.39639818000046 ], [ 68.499360025000385, 23.395398807000277 ], [ 68.489651824000475, 23.404155222000327 ], [ 68.503267800000344, 23.403413070000397 ], [ 68.505618008000454, 23.39639818000046 ], [ 68.51989477400042, 23.40246580600035 ], [ 68.544165276000399, 23.398182775000407 ], [ 68.528817752000464, 23.404964240000311 ], [ 68.532386944000393, 23.411388784000394 ], [ 68.521322450000412, 23.419954844000358 ], [ 68.523130440000443, 23.440526730000386 ], [ 68.50388484000041, 23.408290800000373 ], [ 68.489022240000452, 23.413087350000239 ], [ 68.498471160000463, 23.451450030000217 ], [ 68.492857680000327, 23.449864051000361 ], [ 68.485659480000379, 23.469481350000308 ], [ 68.496928920000414, 23.476194000000248 ], [ 68.495692680000445, 23.482770030000438 ], [ 68.485133519000271, 23.484505860000354 ], [ 68.495491440000478, 23.477924971000391 ], [ 68.485407119000342, 23.47320024000021 ], [ 68.469379560000391, 23.476747681000347 ], [ 68.481709200000353, 23.472641700000338 ], [ 68.488435799000285, 23.460071130000472 ], [ 68.484876120000365, 23.39073612000027 ], [ 68.458622040000421, 23.387977441000317 ], [ 68.438958480000395, 23.399687971000446 ], [ 68.443157520000398, 23.42188098100047 ], [ 68.450875200000382, 23.421761641000387 ], [ 68.450596199000472, 23.441334480000421 ], [ 68.43412655900039, 23.427085770000303 ], [ 68.431340880000391, 23.412774420000289 ], [ 68.421990959000482, 23.416182000000333 ], [ 68.416105319000394, 23.405818681000369 ], [ 68.394934440000441, 23.419729800000198 ], [ 68.3906655600004, 23.435654130000444 ], [ 68.406627240000319, 23.447515771000212 ], [ 68.407436519000441, 23.463066330000345 ], [ 68.426741519000416, 23.462420400000326 ], [ 68.441236560000448, 23.468971770000451 ], [ 68.442380999000363, 23.477232960000435 ], [ 68.416486920000409, 23.465492190000475 ], [ 68.411649599000327, 23.474002771000414 ], [ 68.43924467900041, 23.496681330000399 ], [ 68.464463760000399, 23.49992583000045 ], [ 68.487024599000449, 23.514400980000346 ], [ 68.487150239000357, 23.533830540000338 ], [ 68.480603999000323, 23.530339351000237 ], [ 68.481447480000384, 23.516477730000361 ], [ 68.465312999000446, 23.509165590000237 ], [ 68.446311479000315, 23.527498320000404 ], [ 68.484936599000321, 23.55886476000029 ], [ 68.488108200000283, 23.582741760000374 ], [ 68.48431740000035, 23.597781211000324 ], [ 68.495347079000339, 23.602717350000432 ], [ 68.495111999000414, 23.620342410000376 ], [ 68.487437520000412, 23.623140061000299 ], [ 68.495820840000363, 23.641406100000381 ], [ 68.48512452000034, 23.641891201000306 ], [ 68.475218399000426, 23.627201761000435 ], [ 68.455968479000319, 23.636241270000426 ], [ 68.459035679000465, 23.65622964100038 ], [ 68.518162079000319, 23.675206051000373 ], [ 68.531446800000367, 23.690780191000442 ], [ 68.550076080000451, 23.696966340000415 ], [ 68.561215920000393, 23.71779711000039 ], [ 68.598191520000341, 23.73005097000032 ], [ 68.615529840000363, 23.753052090000267 ], [ 68.629146120000428, 23.753095651000365 ], [ 68.65925904000045, 23.813537491000375 ], [ 68.672725200000343, 23.813375221000456 ], [ 68.68461059900045, 23.784227460000238 ], [ 68.710877280000261, 23.785464781000258 ], [ 68.686639560000344, 23.787416881000297 ], [ 68.676040080000348, 23.815081710000356 ], [ 68.719719240000359, 23.831126010000389 ], [ 68.742610921000391, 23.827371300000209 ], [ 68.725090080000314, 23.834290140000348 ], [ 68.750381160000359, 23.842109069000287 ], [ 68.758922520000453, 23.863112009000417 ], [ 68.778799920000381, 23.875621199000193 ], [ 68.790911040000424, 23.867886059000341 ], [ 68.790124800000342, 23.848337070000355 ], [ 68.795136720000471, 23.844509009000262 ], [ 68.794648560000383, 23.866906769000366 ], [ 68.78941164000031, 23.876167859000304 ], [ 68.804128080000453, 23.881708350000338 ], [ 68.811767281000414, 23.897450520000405 ], [ 68.804588521000255, 23.896715130000473 ], [ 68.801142961000266, 23.882977169000412 ], [ 68.761268640000367, 23.882631569000409 ], [ 68.758332120000432, 23.873809769000388 ], [ 68.749980841000365, 23.880249360000391 ], [ 68.755784760000324, 23.894483579000337 ], [ 68.745864241000447, 23.882551559000206 ], [ 68.716387080000345, 23.890997069000321 ], [ 68.735273760000382, 23.88380993900023 ], [ 68.727508920000446, 23.870406869000419 ], [ 68.731044480000378, 23.861763360000282 ], [ 68.713782840000363, 23.84889092900022 ], [ 68.718071520000478, 23.857951049000235 ], [ 68.708006641000338, 23.867296739000437 ], [ 68.710305240000366, 23.846117849000279 ], [ 68.690719080000406, 23.838786270000242 ], [ 68.677647840000475, 23.849486549000346 ], [ 68.687635681000415, 23.869129049000378 ], [ 68.673722400000429, 23.850129060000256 ], [ 68.666329440000482, 23.862065669000344 ], [ 68.6721283210004, 23.845368239000436 ], [ 68.661887401000399, 23.850657269000351 ], [ 68.669884800000318, 23.839281899000468 ], [ 68.645592000000477, 23.839332389000219 ], [ 68.656987440000421, 23.856606899000269 ], [ 68.642860681000343, 23.836374719000275 ], [ 68.624349120000318, 23.84659493900034 ], [ 68.632668360000309, 23.835431069000322 ], [ 68.60479356000036, 23.807428919000358 ], [ 68.606620561000284, 23.820293160000404 ], [ 68.597933040000271, 23.831302769000388 ], [ 68.593152240000336, 23.772159720000275 ], [ 68.572716480000395, 23.76549198000032 ], [ 68.561208360000478, 23.780649869000456 ], [ 68.550889320000408, 23.78447423900036 ], [ 68.569615441000394, 23.760535319000439 ], [ 68.542171200000439, 23.751354599000194 ], [ 68.532111360000329, 23.753909249000401 ], [ 68.531772240000294, 23.77660526900047 ], [ 68.522905081000374, 23.786692650000475 ], [ 68.52985812000037, 23.774640660000387 ], [ 68.52800952000041, 23.752783619000354 ], [ 68.485225321000428, 23.736583889000372 ], [ 68.497691400000406, 23.756871329000319 ], [ 68.477947920000361, 23.771944709000309 ], [ 68.491293841000356, 23.782836149000332 ], [ 68.476314600000421, 23.778449459000456 ], [ 68.470567560000461, 23.794855739000241 ], [ 68.47706304000036, 23.764944779000416 ], [ 68.49449100100037, 23.754791699000407 ], [ 68.471499240000412, 23.730418619000432 ], [ 68.465172600000471, 23.737721039000348 ], [ 68.446277641000336, 23.729580809000254 ], [ 68.432684401000415, 23.734932839000408 ], [ 68.443593841000336, 23.759834039000339 ], [ 68.458861081000407, 23.768274779000421 ], [ 68.457442680000383, 23.786256059000323 ], [ 68.447292481000318, 23.800077719000342 ], [ 68.42006460000033, 23.811317819000408 ], [ 68.422759200000371, 23.797220400000413 ], [ 68.424784200000374, 23.809013639000341 ], [ 68.454356040000391, 23.784977609000407 ], [ 68.455257840000399, 23.77073664000045 ], [ 68.439565080000364, 23.761989899000355 ], [ 68.427304200000322, 23.733835290000286 ], [ 68.442132601000424, 23.725224809000395 ], [ 68.403903840000396, 23.694999659000302 ], [ 68.365572480000367, 23.640944039000431 ], [ 68.352343200000348, 23.593275089000315 ], [ 68.334238080000375, 23.581756889000303 ], [ 68.301958320000438, 23.570229510000388 ], [ 68.281247520000477, 23.572431989000279 ], [ 68.262335280000457, 23.58643706900034 ], [ 68.244734160000405, 23.577389999000331 ], [ 68.218971480000391, 23.592592259000298 ], [ 68.133476520000329, 23.61527288900038 ], [ 68.137335720000408, 23.624661509000418 ], [ 68.166948960000354, 23.631746130000465 ], [ 68.178524040000411, 23.648742180000397 ], [ 68.184185400000445, 23.69618190000034 ], [ 68.176107720000346, 23.734490219000349 ], [ 68.200159680000354, 23.78474216900031 ], [ 68.206483440000454, 23.862061800000276 ], [ 68.216781960000446, 23.878300950000323 ], [ 68.244111000000373, 23.8945038290002 ], [ 68.279950440000448, 23.892943139000408 ], [ 68.27176188000044, 23.919868799000369 ], [ 68.278841280000336, 23.937217559000317 ], [ 68.293308241000318, 23.935681439000234 ], [ 68.29902648000035, 23.9165296190003 ], [ 68.315628960000367, 23.91260606900039 ], [ 68.324045760000445, 23.926042349000284 ], [ 68.340874321000456, 23.92917408000028 ], [ 68.339761560000284, 23.962239630000397 ], [ 68.35669524000042, 23.96980502900044 ], [ 68.364361441000256, 23.945339429000342 ], [ 68.375422080000362, 23.940884069000447 ], [ 68.387378400000387, 23.964924419000397 ], [ 68.75341380000026, 23.963130360000207 ], [ 68.763686401000314, 24.036927389000255 ], [ 68.768077680000317, 24.285279149000246 ], [ 68.776604640000471, 24.29530298900039 ], [ 68.830323840000403, 24.309610649000263 ], [ 68.851782720000415, 24.209602469000345 ], [ 68.873699520000343, 24.210280529000329 ], [ 68.876500320000275, 24.20190810000031 ], [ 68.891635440000414, 24.197112719000245 ], [ 68.90814504000042, 24.210448379000354 ], [ 68.926027680000345, 24.259945770000343 ], [ 68.951302920000273, 24.277945679000425 ], [ 68.97467448100042, 24.238873799000203 ], [ 69.004671120000353, 24.227255879000325 ], [ 69.097076281000454, 24.270539939000344 ], [ 69.204021480000279, 24.236781839000344 ], [ 69.279170040000338, 24.270488369000361 ], [ 69.314543280000407, 24.278359409000359 ], [ 69.366255480000405, 24.26790977900032 ], [ 69.435930960000348, 24.275457810000376 ], [ 69.505592040000408, 24.256929689000287 ], [ 69.605131320000396, 24.279841439000279 ], [ 69.729343560000302, 24.177525299000365 ], [ 69.87525192000038, 24.167476439000211 ], [ 70.00568028000032, 24.169349879000322 ], [ 70.029114841000307, 24.172281719000296 ], [ 70.064287561000299, 24.195675599000367 ], [ 70.123818960000392, 24.293323799000405 ], [ 70.24181004000036, 24.319863810000356 ], [ 70.330270320000466, 24.349927139000272 ], [ 70.374972241000478, 24.355892249000362 ], [ 70.579263240000387, 24.422528609000381 ], [ 70.616284920000453, 24.402734459000271 ], [ 70.596569880000459, 24.360871499000382 ], [ 70.576632000000473, 24.346816109000258 ], [ 70.592049720000375, 24.312422069000206 ], [ 70.576936200000432, 24.295877099000279 ], [ 70.592493600000296, 24.287688539000442 ], [ 70.577163720000385, 24.267247829000439 ], [ 70.579005840000434, 24.254659260000437 ], [ 70.598322360000282, 24.242590620000385 ], [ 70.66008072100044, 24.227356859000338 ], [ 70.810449480000329, 24.224863589000449 ], [ 70.858249201000319, 24.249456360000352 ], [ 70.898649840000417, 24.259138019000204 ], [ 70.905589561000397, 24.264738989000364 ], [ 70.89359796000042, 24.270898859000397 ], [ 70.889613480000435, 24.292780920000382 ], [ 70.964042040000379, 24.348176009000326 ], [ 71.002663920000316, 24.362465399000314 ], [ 71.017248600000357, 24.34875128900029 ], [ 71.051417640000466, 24.349201559000278 ], [ 71.070625440000413, 24.357511979000265 ], [ 71.092409400000349, 24.383261249000384 ], [ 71.126169120000327, 24.392646269000238 ], [ 71.135812080000449, 24.403561109000236 ], [ 71.138118240000267, 24.415563239000335 ], [ 71.122939200000417, 24.432803279000211 ], [ 71.032630681000398, 24.435204209000403 ], [ 71.011614240000313, 24.444079919000444 ], [ 71.019229320000477, 24.524564219000354 ], [ 71.002144081000381, 24.543146969000475 ], [ 71.002460521000444, 24.586540020000371 ], [ 71.024262120000344, 24.632312579000313 ], [ 71.064522721000401, 24.64822403900024 ], [ 71.110837080000408, 24.682403519000445 ], [ 71.242301880000355, 24.725771279000469 ], [ 71.252290080000421, 24.721954469000366 ], [ 71.237081520000402, 24.69101885900028 ], [ 71.24470128000047, 24.661495889000378 ], [ 71.275613401000442, 24.657664319000276 ], [ 71.32743972000037, 24.684764399000244 ] ], [ [ 74.159305920000577, 22.411968570000397 ], [ 74.179924920000587, 22.390408440000499 ], [ 74.180167920000429, 22.420294650000415 ], [ 74.167923240000505, 22.421931030000451 ], [ 74.159305920000577, 22.411968570000397 ] ], [ [ 72.98451250900041, 20.298512782000387 ], [ 72.992240889000357, 20.320854772000359 ], [ 72.983275875000402, 20.334032931000309 ], [ 72.961488720000261, 20.334423060000347 ], [ 72.956192349000389, 20.31472320900042 ], [ 72.98451250900041, 20.298512782000387 ] ] ], [ [ [ 70.466619959000354, 23.043621420000363 ], [ 70.466128380000441, 23.053170195000348 ], [ 70.488196919000416, 23.068978469000399 ], [ 70.485559560000411, 23.056547580000313 ], [ 70.466619959000354, 23.043621420000363 ] ] ] ] } }
]
}
